NORAD_CAT_ID,OBJECT_NAME,OBJECT_TYPE,EPOCH,MEAN_MOTION,ECCENTRICITY,INCLINATION,RA_OF_ASC_NODE,ARG_OF_PERICENTER,MEAN_ANOMALY,BSTAR,MEAN_MOTION_DOT,MEAN_MOTION_DDOT,TLE_LINE0,TLE_LINE1,TLE_LINE2,SEMIMAJOR_AXIS,PERIOD,APOGEE,PERIGEE,DECAYED
53559.0,STARLINK-4508,PAYLOAD,2022-09-02 14:00:01,15.73189513,0.0001137999999999,53.2164,86.4602,66.6922,110.9699,0.00028085,0.0003896,0.0,0 STARLINK-4508,1 53559U 22101AJ  22245.58334491  .00038960  00000-0  28085-3 0  9997,2 53559  53.2164  86.4602 0001138  66.6922 110.9699 15.73189513  1302,6727.925,91.534,350.556,349.024,0.0
53559.0,STARLINK-4508,PAYLOAD,2022-09-02 20:00:01,15.73207753,0.0001262999999999,53.216,85.2247,55.5749,98.7846,0.00010291,0.00013851,0.0,0 STARLINK-4508,1 53559U 22101AJ  22245.83334491  .00013851  00000-0  10291-3 0  9997,2 53559  53.2160  85.2247 0001263  55.5749  98.7846 15.73207753  2230,6727.873000000001,91.533,350.588,348.88800000000015,0.0
53559.0,STARLINK-4508,PAYLOAD,2022-09-02 22:00:01,15.73203472,0.0001315999999999,53.2161,84.8128,53.8768,212.7923,0.00035803,0.00049934,0.0,0 STARLINK-4508,1 53559U 22101AJ  22245.91668981  .00049934  00000-0  35803-3 0  9997,2 53559  53.2161  84.8128 0001316  53.8768 212.7923 15.73203472  1300,6727.885,91.533,350.636,348.865,0.0
53559.0,STARLINK-4508,PAYLOAD,2022-09-03 04:00:00,15.73250668,0.0001189,53.2157,83.5733,54.1879,189.1221,8.2057e-08,-6.09e-06,0.0,0 STARLINK-4508,1 53559U 22101AJ  22246.16667824 -.00000609  00000-0  82057-7 0  9994,2 53559  53.2157  83.5733 0001189  54.1879 189.1221 15.73250668  2283,6727.751,91.53,350.416,348.816,0.0
53559.0,STARLINK-4508,PAYLOAD,2022-09-03 14:00:01,15.73265236,0.0001223,53.2162,81.5117,66.8297,17.729,-8.1424e-05,-0.00012063,0.0,0 STARLINK-4508,1 53559U 22101AJ  22246.58334491 -.00012063  00000-0 -81424-4 0  9993,2 53559  53.2162  81.5117 0001223  66.8297  17.7290 15.73265236  1307,6727.709,91.529,350.397,348.751,0.0
53559.0,STARLINK-4508,PAYLOAD,2022-09-03 22:00:00,15.73266484,0.0001365,53.2164,79.8642,55.1253,118.432,-7.3282e-05,-0.00010921,0.0,0 STARLINK-4508,1 53559U 22101AJ  22246.91667824 -.00010921  00000-0 -73282-4 0  9993,2 53559  53.2164  79.8642 0001365  55.1253 118.4320 15.73266484  1301,6727.706,91.529,350.48900000000015,348.652,0.0
53559.0,STARLINK-4508,PAYLOAD,2022-09-04 06:00:00,15.73262436,0.0001233,53.2165,78.2131,55.7642,206.8054,-0.00063346,-0.00088824,0.0,0 STARLINK-4508,1 53559U 22101AJ  22247.25001157 -.00088824  00000-0 -63346-3 0  9998,2 53559  53.2165  78.2131 0001233  55.7642 206.8054 15.73262436  2456,6727.717,91.53,350.412,348.75300000000016,0.0
53559.0,STARLINK-4508,PAYLOAD,2022-09-04 14:00:01,15.73221389,0.0001271,53.2165,76.5632,60.6358,290.9442,5.249800000000001e-05,6.759999999999999e-05,0.0,0 STARLINK-4508,1 53559U 22101AJ  22247.58335648  .00006760  00000-0  52498-4 0  9993,2 53559  53.2165  76.5632 0001271  60.6358 290.9442 15.73221389  1304,6727.834,91.532,350.55400000000014,348.844,0.0
53559.0,STARLINK-4508,PAYLOAD,2022-09-04 16:00:00,15.7326707,0.0001293,53.2163,76.1514,57.0246,46.7356,-0.00033797,-0.00047918,0.0,0 STARLINK-4508,1 53559U 22101AJ  22247.66667824 -.00047918  00000-0 -33797-3 0  9998,2 53559  53.2163  76.1514 0001293  57.0246  46.7356 15.73267070  2520,6727.704000000002,91.529,350.439,348.699,0.0
53559.0,STARLINK-4508,PAYLOAD,2022-09-04 20:00:01,15.73266422,0.0001361999999999,53.2161,75.3276,50.8997,277.356,-0.00061275,-0.00085985,0.0,0 STARLINK-4508,1 53559U 22101AJ  22247.83334491 -.00085985  00000-0 -61275-3 0  9996,2 53559  53.2161  75.3276 0001362  50.8997 277.3560 15.73266422  1309,6727.706,91.529,350.487,348.654,0.0
53559.0,STARLINK-4508,PAYLOAD,2022-09-05 12:00:00,15.73242284,0.0001322,53.2159,72.0266,63.197,82.9779,-0.00036903,-0.00052184,0.0,0 STARLINK-4508,1 53559U 22101AJ  22248.50001157 -.00052184  00000-0 -36903-3 0  9996,2 53559  53.2159  72.0266 0001322  63.1970  82.9779 15.73242284  2654,6727.775,91.531,350.529,348.75,0.0
53559.0,STARLINK-4508,PAYLOAD,2022-09-05 14:00:01,15.73250669,0.0001320999999999,53.2161,71.6147,61.4293,196.9844,-0.00066296,-0.00092842,0.0,0 STARLINK-4508,1 53559U 22101AJ  22248.58334491 -.00092842  00000-0 -66296-3 0  9997,2 53559  53.2161  71.6147 0001321  61.4293 196.9844 15.73250669  1304,6727.751,91.53,350.504,348.727,0.0
53559.0,STARLINK-4508,PAYLOAD,2022-09-05 20:00:01,15.73147406,0.0001247,53.216,70.3794,42.0749,192.9494,0.00045202,0.00063153,0.0,0 STARLINK-4508,1 53559U 22101AJ  22248.83334491  .00063153  00000-0  45202-3 0  9990,2 53559  53.2160  70.3794 0001247  42.0749 192.9494 15.73147406  1306,6728.045,91.536,350.749,349.071,0.0
53559.0,STARLINK-4508,PAYLOAD,2022-09-06 12:00:00,15.73183826,0.0001274,53.2162,67.0784,52.6405,0.1894,0.00025896,0.00035853,0.0,0 STARLINK-4508,1 53559U 22101AJ  22249.50001157  .00035853  00000-0  25896-3 0  9998,2 53559  53.2162  67.0784 0001274  52.6405   0.1894 15.73183826  2813,6727.941,91.534,350.663,348.949,0.0
53559.0,STARLINK-4508,PAYLOAD,2022-09-06 14:00:01,15.73223568,0.0001273,53.2162,66.6667,51.3131,113.736,-0.00033201,-0.00047002,0.0,0 STARLINK-4508,1 53559U 22101AJ  22249.58334491 -.00047002  00000-0 -33201-3 0  9996,2 53559  53.2162  66.6667 0001273  51.3131 113.7360 15.73223568  1309,6727.828,91.532,350.5490000000001,348.837,0.0
53559.0,STARLINK-4508,PAYLOAD,2022-09-06 20:00:01,15.7320086,0.0001443,53.2158,65.4309,41.4063,100.3551,-0.00053921,-0.00075622,0.0,0 STARLINK-4508,1 53559U 22101AJ  22249.83334491 -.00075622  00000-0 -53921-3 0  9994,2 53559  53.2158  65.4309 0001443  41.4063 100.3551 15.73200860  2863,6727.893,91.533,350.72900000000016,348.787,0.0
53559.0,STARLINK-4508,PAYLOAD,2022-09-06 22:00:00,15.7315801,0.0001469,53.2157,65.0188,39.9104,214.085,-0.00010406,-0.00015171,0.0,0 STARLINK-4508,1 53559U 22101AJ  22249.91667824 -.00015171  00000-0 -10406-3 0  9996,2 53559  53.2157  65.0188 0001469  39.9104 214.0850 15.73158010  1301,6728.015,91.536,350.86800000000005,348.892,0.0
53559.0,STARLINK-4508,PAYLOAD,2022-09-07 12:00:00,15.73166723,0.0001269,53.2156,62.13,50.7662,268.7455,0.00048144,0.00067394,0.0,0 STARLINK-4508,1 53559U 22101AJ  22250.50001157  .00067394  00000-0  48144-3 0  9996,2 53559  53.2156  62.1300 0001269  50.7662 268.7455 15.73166723  2962,6727.99,91.535,350.709,349.001,0.0
53559.0,STARLINK-4508,PAYLOAD,2022-09-07 14:00:01,15.73193058,0.0001309,53.2156,61.7182,48.3581,23.3731,0.0002209,0.00030485,0.0,0 STARLINK-4508,1 53559U 22101AJ  22250.58334491  .00030485  00000-0  22090-3 0  9997,2 53559  53.2156  61.7182 0001309  48.3581  23.3731 15.73193058  1303,6727.915,91.534,350.661,348.899,0.0
53559.0,STARLINK-4508,PAYLOAD,2022-09-07 22:00:00,15.73193022,0.0001515,53.2157,60.0703,40.3673,120.2799,0.0005459,0.00076673,0.0,0 STARLINK-4508,1 53559U 22101AJ  22250.91667824  .00076673  00000-0  54590-3 0  9992,2 53559  53.2157  60.0703 0001515  40.3673 120.2799 15.73193022  3032,6727.915,91.534,350.7990000000001,348.761,0.0
53559.0,STARLINK-4508,PAYLOAD,2022-09-08 04:00:00,15.7325584,0.0001512,53.2158,58.8315,43.8591,93.4936,-0.0005161,-0.00072603,0.0,0 STARLINK-4508,1 53559U 22101AJ  22251.16667824 -.00072603  00000-0 -51610-3 0  9991,2 53559  53.2158  58.8315 0001512  43.8591  93.4936 15.73255840  3076,6727.736,91.53,350.61800000000005,348.584,0.0
53559.0,STARLINK-4508,PAYLOAD,2022-09-08 14:00:01,15.73248807,0.0001584,53.2159,56.7693,48.3073,290.2292,-9.4821e-05,-0.00013934,0.0,0 STARLINK-4508,1 53559U 22101AJ  22251.58334491 -.00013934  00000-0 -94821-4 0  9992,2 53559  53.2159  56.7693 0001584  48.3073 290.2292 15.73248807  1308,6727.755999999999,91.53,350.68699999999984,348.555,0.0
53559.0,STARLINK-4508,PAYLOAD,2022-09-08 22:00:00,15.73226862,0.0001730999999999,53.2153,55.121,40.0346,27.5012,-7.4291e-05,-0.00011046,0.0,0 STARLINK-4508,1 53559U 22101AJ  22251.91667824 -.00011046  00000-0 -74291-4 0  9999,2 53559  53.2153  55.1210 0001731  40.0346  27.5012 15.73226862  3193,6727.819,91.532,350.848,348.519,0.0
53559.0,STARLINK-4508,PAYLOAD,2022-09-09 14:00:01,15.73259594,0.0001551,53.2156,51.8204,45.4809,199.9371,-0.00056154,-0.00078896,0.0,0 STARLINK-4508,1 53559U 22101AJ  22252.58334491 -.00078896  00000-0 -56154-3 0  9997,2 53559  53.2156  51.8204 0001551  45.4809 199.9371 15.73259594  1306,6727.725,91.53,350.634,348.547,0.0
53559.0,STARLINK-4508,PAYLOAD,2022-09-09 22:00:00,15.7319051,0.0001749,53.2157,50.1709,34.8377,299.5517,3.4634e-05,4.241e-05,0.0,0 STARLINK-4508,1 53559U 22101AJ  22252.91667824  .00004241  00000-0  34634-4 0  9994,2 53559  53.2157  50.1709 0001749  34.8377 299.5517 15.73190510  1301,6727.922,91.534,350.964,348.611,0.0
53559.0,STARLINK-4508,PAYLOAD,2022-09-10 04:00:00,15.73189799,0.000166,53.216,48.9331,40.0557,271.0541,3.6659e-06,-1.06e-06,0.0,0 STARLINK-4508,1 53559U 22101AJ  22253.16667824 -.00000106  00000-0  36659-5 0  9999,2 53559  53.2160  48.9331 0001660  40.0557 271.0541 15.73189799  3381,6727.924,91.534,350.906,348.672,0.0
53559.0,STARLINK-4508,PAYLOAD,2022-09-10 14:00:01,15.73239893,0.0001742,53.2162,46.8716,40.6604,111.5588,-0.00086007,-0.00119833,0.0,0 STARLINK-4508,1 53559U 22101AJ  22253.58334491 -.00119833  00000-0 -86007-3 0  9995,2 53559  53.2162  46.8716 0001742  40.6604 111.5588 15.73239893  1307,6727.781,91.531,350.8180000000001,348.474,0.0
53559.0,STARLINK-4508,PAYLOAD,2022-09-10 20:00:01,15.73150059,0.0001888,53.2161,45.6346,34.2089,94.7233,-0.00019772,-0.00028219,0.0,0 STARLINK-4508,1 53559U 22101AJ  22253.83334491 -.00028219  00000-0 -19772-3 0  9995,2 53559  53.2161  45.6346 0001888  34.2089  94.7233 15.73150059  3496,6728.038000000001,91.536,351.173,348.63199999999995,0.0
53559.0,STARLINK-4508,PAYLOAD,2022-09-10 22:00:00,15.73172347,0.0001885999999999,53.2156,45.223,32.3676,208.8236,-6.225399999999999e-05,-9.338e-05,0.0,0 STARLINK-4508,1 53559U 22101AJ  22253.91667824 -.00009338  00000-0 -62254-4 0  9998,2 53559  53.2156  45.2230 0001886  32.3676 208.8236 15.73172347  1300,6727.974,91.535,351.108,348.57,0.0
